QIANFAN-33              
1 61566U 24185Q   25203.16659591  .00000307  00000+0  21311-3 0  9998
2 61566  88.9801  94.8332 0009019  58.7664 301.4395 13.96398206 49122
QIANFAN-34              
1 61567U 24185R   25202.86414394  .00000251  00000+0  15491-3 0  9995
2 61567  88.9781  94.6205 0007925  67.2547 292.9470 14.02150089 49194
QIANFAN-35              
1 61568U 24185S   25202.88626942  .00000542  00000+0  21399-3 0  9999
2 61568  88.9802  93.7827 0008778  49.8212 310.3749 14.27642491 49656
QIANFAN-36              
1 61569U 24185T   25202.87762775  .00000083  00000+0  10215-3 0  9999
2 61569  88.9792  96.0468 0008109  94.1932 266.0148 13.55542247 48435
QIANFAN-37              
1 62238U 24232B   25203.15845659  .00000089  00000+0  11909-3 0  9998
2 62238  88.9930  55.8598 0002299  99.7717 260.3694 13.50963806 79784
QIANFAN-38              
1 62239U 24232C   25203.18315814  .00000090  00000+0  12062-3 0  9990
2 62239  88.9937  55.7633 0012654 248.2269 111.7536 13.50952574 79841
QIANFAN-39              
1 62240U 24232D   25202.85184379  .00000232  00000+0  92614-4 0  9995
2 62240  88.9934  53.7986 0015756 181.7594 178.3546 14.25225762 80899
QIANFAN-40              
1 62241U 24232E   25202.91980602  .00000084  00000+0  11199-3 0  9999
2 62241  88.9964  55.3342 0011631 258.1870 101.7976 13.50958701 80172
